<?xml version="1.0" encoding="UTF-8"?>
<kml xmlns="http://www.opengis.net/kml/2.2">
<Document>
<name>Book of Mormon Lands — rivers</name>
<description>Book of Mormon places. Standard KML 2.2, no Google Earth extensions.</description>
<Placemark>
<name>Zarahemla</name>
<Style><LineStyle><color>ff2dc0fb</color><width>4.0</width></LineStyle><PolyStyle><color>40ffffff</color></PolyStyle><IconStyle><color>ff0000ff</color><scale>1.1</scale></IconStyle><LabelStyle><color>ffffffff</color><scale>1</scale></LabelStyle></Style>
<Point><coordinates>-90.061078,16.518847,0</coordinates></Point>
</Placemark>
<Placemark>
<name>Nephi and the Land of Zarahemla were nearly surrounded by water</name>
<Style><LineStyle><color>ff2dc0fb</color><width>4.0</width></LineStyle><PolyStyle><color>40ffffff</color></PolyStyle><IconStyle><color>ff0000ff</color><scale>1.1</scale></IconStyle><LabelStyle><color>ffffffff</color><scale>1</scale></LabelStyle></Style>
<Polygon><tessellate>1</tessellate><outerBoundaryIs><LinearRing><coordinates>-88.257063,15.702750,0 -88.114001,17.407549,0 -88.002137,18.568507,0 -88.583230,18.593074,0 -89.595944,17.810351,0 -90.148162,17.774009,0 -92.037526,18.016915,0 -92.143715,17.363624,0 -90.955621,16.414489,0 -91.250328,16.127998,0 -91.034918,15.431490,0 -92.079468,15.211214,0 -91.868182,14.686401,0 -89.683794,14.738611,0 -88.257063,15.702750,0</coordinates></LinearRing></outerBoundaryIs></Polygon>
</Placemark>
<Placemark>
<name>Rio De La Pasion</name>
<Style><LineStyle><color>ff2dc0fb</color><width>4.0</width></LineStyle><PolyStyle><color>40ffffff</color></PolyStyle><IconStyle><color>ff0000ff</color><scale>1.1</scale></IconStyle><LabelStyle><color>ffffffff</color><scale>1</scale></LabelStyle></Style>
<Point><coordinates>-90.104198,16.250934,0</coordinates></Point>
</Placemark>
<Placemark>
<name>Pasion River</name>
<Style><LineStyle><color>ffd27619</color><width>4.0</width></LineStyle><PolyStyle><color>40ffffff</color></PolyStyle><IconStyle><color>ff0000ff</color><scale>1.1</scale></IconStyle><LabelStyle><color>ffffffff</color><scale>1</scale></LabelStyle></Style>
<LineString><tessellate>1</tessellate><coordinates>-90.054613,16.237089,0 -90.061625,16.234582,0 -90.063654,16.230826,0 -90.065238,16.226998,0 -90.067543,16.224440,0 -90.068326,16.222421,0 -90.070884,16.220495,0 -90.081255,16.220901,0 -90.083472,16.224336,0 -90.080545,16.226870,0 -90.077540,16.227008,0 -90.076112,16.229203,0 -90.077543,16.231332,0 -90.081905,16.232639,0 -90.093489,16.238410,0 -90.104641,16.243294,0 -90.104423,16.252284,0 -90.100148,16.253481,0 -90.094166,16.252770,0 -90.088087,16.253589,0 -90.085151,16.254688,0 -90.082363,16.253794,0 -90.080879,16.249804,0 -90.081388,16.247676,0 -90.084545,16.245560,0 -90.089090,16.242818,0 -90.089498,16.241417,0 -90.087095,16.240184,0 -90.081588,16.238107,0 -90.074298,16.237736,0 -90.071957,16.241909,0 -90.073631,16.245416,0 -90.073416,16.250998,0 -90.072540,16.254911,0 -90.070427,16.258969,0 -90.068190,16.263424,0 -90.066102,16.264042,0 -90.063811,16.262112,0 -90.059815,16.260651,0 -90.055399,16.260698,0 -90.052418,16.261748,0 -90.052272,16.264097,0 -90.055363,16.276406,0 -90.055596,16.290174,0 -90.055622,16.300480,0 -90.055791,16.325491,0 -90.060971,16.335474,0 -90.062885,16.340149,0 -90.060779,16.345915,0 -90.064563,16.348266,0 -90.066772,16.350205,0 -90.064214,16.361854,0 -90.056537,16.365668,0 -90.046951,16.363632,0 -90.046776,16.369813,0 -90.058814,16.386248,0 -90.055719,16.387231,0 -90.052049,16.383521,0 -90.051120,16.379316,0 -90.048721,16.376506,0 -90.038126,16.374190,0 -90.041318,16.383275,0 -90.054017,16.391368,0 -90.054280,16.398429,0 -90.041263,16.400816,0 -90.038575,16.410364,0 -90.043344,16.416774,0 -90.035097,16.433159,0 -90.031836,16.442349,0 -90.040043,16.449876,0 -90.037106,16.462978,0 -90.039643,16.473021,0 -90.038400,16.477689,0 -90.044271,16.479087,0 -90.052209,16.482828,0 -90.054661,16.494846,0 -90.050712,16.512109,0 -90.041911,16.524437,0 -90.035140,16.531623,0 -90.033065,16.537457,0 -90.037735,16.543618,0 -90.042681,16.543570,0 -90.044704,16.540006,0 -90.048942,16.537894,0 -90.057220,16.545830,0 -90.067072,16.555010,0 -90.075936,16.556250,0 -90.084156,16.560888,0 -90.088403,16.557333,0 -90.092302,16.551026,0 -90.095358,16.556951,0 -90.098726,16.557102,0 -90.100068,16.545838,0 -90.105485,16.536588,0 -90.113671,16.534826,0 -90.135518,16.536088,0 -90.148869,16.530093,0 -90.159615,16.530946,0 -90.158117,16.539850,0 -90.157374,16.545193,0 -90.163686,16.546821,0 -90.173972,16.542414,0 -90.177285,16.538564,0 -90.182559,16.539475,0 -90.186535,16.534795,0 -90.188974,16.532228,0 -90.190695,16.534031,0 -90.188645,16.539349,0 -90.192171,16.546232,0 -90.197911,16.552510,0 -90.202475,16.556250,0 -90.209298,16.552448,0 -90.213678,16.545381,0 -90.222884,16.543532,0 -90.236790,16.557361,0 -90.245958,16.563595,0 -90.252598,16.564222,0 -90.258705,16.560892,0 -90.265703,16.561511,0 -90.282035,16.566438,0 -90.300734,16.570839,0 -90.304755,16.570438,0 -90.311081,16.558847,0 -90.309472,16.555394,0 -90.315036,16.553759,0 -90.343469,16.577645,0 -90.355889,16.573550,0 -90.356209,16.583885,0 -90.343259,16.587163,0 -90.344776,16.597004,0 -90.368579,16.600605,0 -90.379112,16.602059,0 -90.380286,16.595949,0 -90.372019,16.581628,0 -90.371823,16.573989,0 -90.391181,16.577258,0 -90.409449,16.579039,0 -90.422051,16.573201,0 -90.424837,16.559618,0 -90.435000,16.556675,0 -90.445560,16.561901,0 -90.467926,16.549171,0 -90.465310,16.542802,0 -90.454279,16.539687,0 -90.447225,16.545671,0 -90.442305,16.539265,0 -90.451318,16.516915,0 -90.451326,16.493500,0 -90.446210,16.486121,0 -90.451253,16.482046,0 -90.463282,16.488348,0 -90.461957,16.499731,0 -90.467799,16.520948,0 -90.478638,16.525472,0 -90.489085,16.506311,0 -90.498969,16.511432,0 -90.499101,16.519610,0 -90.504723,16.514961,0 -90.510840,16.514556,0 -90.521721,16.496740,0 -90.519967,16.479585,0 -90.542691,16.481405,0 -90.554001,16.480718,0 -90.573952,16.474597,0 -90.590862,16.470223,0 -90.592649,16.487355,0 -90.597592,16.491576,0 -90.614018,16.487558,0 -90.618603,16.478884,0 -90.633181,16.479940,0 -90.635244,16.488433,0 -90.628379,16.489358,0 -90.614416,16.491647,0 -90.606600,16.502473,0 -90.617503,16.522086,0 -90.642030,16.513908,0 -90.644855,16.529461,0 -90.647646,16.543091,0 -90.647377,16.551019,0 -90.646701,16.562696,0 -90.629269,16.574169,0 -90.626156,16.577936,0 -90.640929,16.596443,0 -90.643249,16.595521,0 -90.645346,16.578444,0 -90.667182,16.580800,0 -90.667391,16.589096,0 -90.654954,16.592652,0 -90.655563,16.603787,0</coordinates></LineString>
</Placemark>
<Placemark>
<name>Pasion River 2</name>
<Style><LineStyle><color>ffd27619</color><width>4.0</width></LineStyle><PolyStyle><color>40ffffff</color></PolyStyle><IconStyle><color>ff0000ff</color><scale>1.1</scale></IconStyle><LabelStyle><color>ffffffff</color><scale>1</scale></LabelStyle></Style>
<LineString><tessellate>1</tessellate><coordinates>-90.054786,16.236960,0 -90.052157,16.231136,0 -90.049286,16.227764,0 -90.048609,16.222547,0 -90.047060,16.220173,0 -90.043959,16.219395,0 -90.041212,16.220317,0 -90.041514,16.223645,0 -90.041697,16.228291,0 -90.038768,16.231316,0 -90.037440,16.231866,0 -90.034186,16.228485,0 -90.034387,16.225946,0 -90.037269,16.224205,0 -90.037257,16.222294,0 -90.033608,16.216226,0 -90.033434,16.214125,0 -90.035796,16.213400,0 -90.037772,16.211115,0 -90.034071,16.202986,0 -90.040358,16.202329,0 -90.051856,16.197716,0 -90.054325,16.193010,0 -90.050181,16.191348,0 -90.045473,16.188456,0 -90.040223,16.189913,0 -90.039711,16.194010,0 -90.036812,16.196260,0 -90.035030,16.193172,0 -90.028205,16.184389,0 -90.027601,16.182270,0 -90.032254,16.179212,0 -90.039440,16.182674,0 -90.050187,16.177028,0 -90.051236,16.171375,0 -90.050507,16.170749,0 -90.040108,16.173202,0 -90.035942,16.171201,0 -90.038273,16.167826,0 -90.041142,16.165738,0 -90.041600,16.162614,0 -90.040063,16.158105,0 -90.047304,16.153948,0 -90.046934,16.149559,0 -90.035958,16.137983,0 -90.033182,16.138804,0 -90.035014,16.141233,0 -90.037735,16.144378,0 -90.031864,16.144969,0 -90.027926,16.140433,0 -90.022374,16.141531,0 -90.014201,16.139625,0 -90.014795,16.136950,0 -90.026273,16.135918,0 -90.028062,16.131092,0 -90.031002,16.124794,0 -90.036581,16.121649,0 -90.043926,16.117184,0 -90.049215,16.120252,0 -90.056506,16.114644,0 -90.062866,16.114714,0 -90.064549,16.117867,0 -90.069481,16.115559,0 -90.076287,16.113718,0 -90.078793,16.114944,0 -90.081121,16.113142,0 -90.083537,16.110921,0 -90.089822,16.112858,0 -90.088240,16.116685,0 -90.086688,16.119941,0 -90.087348,16.119912,0 -90.090749,16.117858,0 -90.093882,16.115766,0 -90.094900,16.116710,0 -90.095465,16.118236,0 -90.097090,16.117090,0 -90.096850,16.114279,0 -90.093121,16.110444,0 -90.087738,16.108468,0 -90.083102,16.108362,0 -90.077362,16.109000,0 -90.074318,16.106416,0 -90.068574,16.101981,0 -90.068333,16.097558,0 -90.067699,16.094718,0 -90.059445,16.095471,0 -90.054831,16.093192,0 -90.050851,16.091099,0 -90.052802,16.084335,0 -90.057418,16.083108,0 -90.059827,16.079148,0 -90.068670,16.082574,0 -90.073151,16.072783,0 -90.072416,16.070666,0 -90.070482,16.064110,0 -90.066958,16.063618,0 -90.065739,16.058606,0 -90.059809,16.054926,0 -90.059512,16.048821,0 -90.055110,16.049681,0 -90.051224,16.047721,0 -90.056437,16.032982,0 -90.063078,16.026321,0 -90.061266,16.019409,0 -90.052264,16.019870,0 -90.047416,16.023231,0 -90.046332,16.020141,0 -90.049654,16.015233,0 -90.045959,15.991728,0 -90.035897,16.015531,0 -90.015078,16.010512,0 -90.016674,15.993529,0 -90.003732,15.999872,0 -89.992361,16.001799,0 -89.987751,15.992504,0 -89.986461,15.988304,0 -89.992569,15.988101,0 -89.998021,15.990407,0 -89.999076,15.988165,0 -90.003018,15.987218,0 -90.004187,15.984935,0 -90.008190,15.984852,0 -90.013159,15.979650,0 -90.009152,15.975284,0 -90.006810,15.969802,0 -90.004113,15.963075,0 -90.007026,15.957427,0 -90.014313,15.962158,0 -90.019117,15.965702,0 -90.019191,15.961009,0 -90.014312,15.952534,0 -90.011034,15.945590,0 -90.002463,15.948905,0 -90.003616,15.943558,0 -90.001138,15.935720,0 -89.998554,15.935818,0 -89.994869,15.946972,0 -89.992457,15.957897,0 -89.992132,15.941910,0 -89.987777,15.931610,0 -89.995847,15.928213,0 -89.993262,15.923607,0 -89.996276,15.918560,0 -89.984524,15.913931,0 -89.984591,15.904391,0 -89.996741,15.906691,0 -89.999324,15.901986,0 -89.992972,15.902416,0 -89.989463,15.900820,0 -89.990156,15.897073,0 -89.990580,15.893876,0 -89.994015,15.890164,0 -89.989578,15.889214,0 -89.985680,15.894330,0 -89.985462,15.900145,0 -89.977649,15.898890,0 -89.972734,15.897557,0 -89.976000,15.892358,0 -89.981849,15.891376,0 -89.975794,15.887743,0 -89.970142,15.890082,0 -89.961613,15.882408,0 -89.954747,15.888287,0 -89.949913,15.883233,0 -89.957347,15.880644,0 -89.950752,15.875726,0 -89.947192,15.872502,0 -89.945360,15.868776,0 -89.949372,15.869802,0 -89.950084,15.866459,0 -89.949657,15.860384,0 -89.944558,15.854074,0 -89.937930,15.854297,0 -89.933836,15.849737,0</coordinates></LineString>
</Placemark>
<Placemark>
<name>First Landing</name>
<Style><LineStyle><color>ff2dc0fb</color><width>4.0</width></LineStyle><PolyStyle><color>40ffffff</color></PolyStyle><IconStyle><color>ff0000ff</color><scale>1.1</scale></IconStyle><LabelStyle><color>ffffffff</color><scale>1</scale></LabelStyle></Style>
<Point><coordinates>-88.226160,18.411140,0</coordinates></Point>
</Placemark>
<Placemark>
<name>Hill Achotal, Cumorah - Ramah</name>
<Style><LineStyle><color>ff2dc0fb</color><width>4.0</width></LineStyle><PolyStyle><color>40ffffff</color></PolyStyle><IconStyle><color>ff0000ff</color><scale>1.1</scale></IconStyle><LabelStyle><color>ffffffff</color><scale>1</scale></LabelStyle></Style>
<Polygon><tessellate>1</tessellate><outerBoundaryIs><LinearRing><coordinates>-88.861564,17.939347,0 -88.861290,17.939489,0 -88.882805,17.911547,0 -88.879208,17.894890,0 -88.861681,17.895823,0 -88.852623,17.908985,0 -88.836801,17.933839,0 -88.820120,17.949367,0 -88.803977,17.963275,0 -88.822839,17.979135,0 -88.850528,17.967508,0 -88.861730,17.949848,0 -88.861388,17.939635,0 -88.861564,17.939347,0</coordinates></LinearRing></outerBoundaryIs></Polygon>
</Placemark>
<Placemark>
<name>Land Northward</name>
<Style><LineStyle><color>ff2dc0fb</color><width>4.0</width></LineStyle><PolyStyle><color>40ffffff</color></PolyStyle><IconStyle><color>ff0000ff</color><scale>1.1</scale></IconStyle><LabelStyle><color>ffffffff</color><scale>1</scale></LabelStyle></Style>
<Point><coordinates>-89.718156,17.622694,0</coordinates></Point>
</Placemark>
<Placemark>
<name>Land Northward</name>
<description>&lt;h2&gt;Land of Mulek&lt;br&gt;&lt;/h2&gt;</description>
<Style><LineStyle><color>ff2dc0fb</color><width>3.0</width></LineStyle><PolyStyle><color>40000000</color></PolyStyle><IconStyle><color>ff0000ff</color><scale>1.1</scale></IconStyle><LabelStyle><color>ffffffff</color><scale>1</scale></LabelStyle></Style>
<Polygon><tessellate>1</tessellate><outerBoundaryIs><LinearRing><coordinates>-90.522545,17.736978,0 -90.441742,17.171621,0 -89.225931,17.086280,0 -88.374647,17.375729,0 -88.385728,17.999950,0 -88.937437,18.035334,0 -89.569801,17.827480,0 -90.522545,17.736978,0</coordinates></LinearRing></outerBoundaryIs></Polygon>
</Placemark>
<Placemark>
<name>Hill Cumorah, Ramah</name>
<Style><LineStyle><color>ff2dc0fb</color><width>4.0</width></LineStyle><PolyStyle><color>40ffffff</color></PolyStyle><IconStyle><color>ff0000ff</color><scale>1.1</scale></IconStyle><LabelStyle><color>ffffffff</color><scale>1</scale></LabelStyle></Style>
<Point><coordinates>-88.845072,17.939360,0</coordinates></Point>
</Placemark>
</Document></kml>
